[{"OBJECT_NAME":"STARLINK-32488","OBJECT_ID":"2024-222M","EPOCH":"2026-03-09T13:12:31.929984","MEAN_MOTION":15.27583991,"ECCENTRICITY":0.0002541,"INCLINATION":43.001,"RA_OF_ASC_NODE":137.316,"ARG_OF_PERICENTER":283.8149,"MEAN_ANOMALY":76.242,"EPHEMERIS_TYPE":0,"CLASSIFICATION_TYPE":"U","NORAD_CAT_ID":62125,"ELEMENT_SET_NO":999,"REV_AT_EPOCH":7262,"BSTAR":0.00074784,"MEAN_MOTION_DOT":0.00020377,"MEAN_MOTION_DDOT":0},{"OBJECT_NAME":"OBJECT L","OBJECT_ID":"2024-024L","EPOCH":"2026-03-09T22:36:05.522976","MEAN_MOTION":15.29373491,"ECCENTRICITY":0.00073185,"INCLINATION":97.3169,"RA_OF_ASC_NODE":137.7038,"ARG_OF_PERICENTER":167.6369,"MEAN_ANOMALY":192.5052,"EPHEMERIS_TYPE":0,"CLASSIFICATION_TYPE":"U","NORAD_CAT_ID":58927,"ELEMENT_SET_NO":999,"REV_AT_EPOCH":9318,"BSTAR":0.00043092344,"MEAN_MOTION_DOT":0.00012217,"MEAN_MOTION_DDOT":0}]
